ONEWEB-0430             
1 50501U 21132AJ  23059.40872960  .00000014  00000+0  37569-5 0  9994
2 50501  87.9180 214.8691 0001463 111.7570 248.3718 13.18686129 62841
ONEWEB-0430             
1 50501U 21132AJ  23059.93986480  .00000052  00000+0  99204-4 0  9990
2 50501  87.9180 214.7636 0001488 112.1953 247.9337 13.18686336 64200
ONEWEB-0430             
1 50501U 21132AJ  23060.85038281  .00000004  00000+0 -21520-4 0  9994
2 50501  87.9181 214.5828 0001539 112.5110 247.6185 13.18686525 63036
ONEWEB-0430             
1 50501U 21132AJ  23061.68502406  .00000074  00000+0  15466-3 0  9998
2 50501  87.9183 214.4171 0001556 112.7342 247.3955 13.18686589 63140
ONEWEB-0430             
1 50501U 21132AJ  23062.36791182  .00000144  00000+0  33358-3 0  9993
2 50501  87.9185 214.2816 0001548 113.0515 247.0780 13.18687111 64521
ONEWEB-0430             
1 50501U 21132AJ  23062.44378821  .00000130  00000+0  29793-3 0  9996
2 50501  87.9185 214.2666 0001554 113.0829 247.0467 13.18687250 63243
